MEASAT-3                
1 29648U 06056A   16272.84680990 -.00000270  00000-0  00000+0 0  9997
2 29648   0.0467 128.9574 0003199  48.1640 227.2857  1.00272737 35975
KIKU-8 (ETS-VIII)       
1 29656U 06059A   16272.74237294 -.00000265  00000-0  00000-0 0  9998
2 29656   5.0833  60.6536 0003677 120.3605 239.8788  1.00271455 35890
INSAT-4B                
1 30793U 07007A   16273.49672301 -.00000283  00000-0  00000+0 0  9990
2 30793   0.6067  89.1056 0008225 149.4654  42.4384  1.00270279 34989
SKYNET 5A               
1 30794U 07007B   16273.02519008 -.00000299  00000-0  00000+0 0  9991
2 30794   0.0681   5.8942 0004526 195.4240 271.1873  1.00272436 35079
ANIK F3                 
1 31102U 07009A   16273.38795480 -.00000028  00000-0  00000+0 0  9996
2 31102   0.0152 241.1275 0001874 320.5410 187.8767  1.00275264 34765
ASTRA 1L                
1 31306U 07016A   16273.15802513  .00000092  00000-0  00000+0 0  9991
2 31306   0.0746 308.2891 0003085 296.2938 199.8399  1.00272284 34469
GALAXY 17 (G-17)        
1 31307U 07016B   16273.33119652 -.00000201  00000-0  00000+0 0  9990
2 31307   0.0327  39.8542 0003603 166.8864 190.0228  1.00271910 34505
ZHONGXING-6B            
1 31800U 07031A   16272.82889374 -.00000390  00000-0  00000-0 0  9993
2 31800   0.0130 257.5701 0003207 306.4828 217.8869  1.00269173 33857
DIRECTV 10              
1 31862U 07032A   16273.26222008 -.00000129  00000-0  00000+0 0  9995
2 31862   0.0083 267.2467 0000088  52.1195  40.6331  1.00269624 33830
SPACEWAY 3              
1 32018U 07036A   16273.07410389 -.00000179  00000-0  00000+0 0  9998
2 32018   0.0081 113.2195 0000260 265.0827 281.6899  1.00269287 33548
BSAT-3A                 
1 32019U 07036B   16272.67291608 -.00000379  00000-0  00000+0 0  9997
2 32019   0.0375 208.8805 0004581   3.5847 147.5160  1.00272184 33485
INSAT-4CR               
1 32050U 07037A   16272.98243831 -.00000105  00000-0  00000+0 0  9999
2 32050   0.0463  99.5022 0007311 153.3980 182.9433  1.00272394 33276
OPTUS D2                
1 32252U 07044A   16273.54131106 -.00000209  00000-0  00000+0 0  9990
2 32252   0.0178  99.4024 0003662  86.0959 170.1307  1.00271927 32861
INTELSAT 11 (IS-11)     
1 32253U 07044B   16273.43015752 -.00000295  00000-0  00000+0 0  9992
2 32253   0.0157 203.1318 0002734 344.3147 293.0330  1.00273473 32956
STAR ONE C1             
1 32293U 07056A   16273.15732553 -.00000304  00000-0  00000+0 0  9994
2 32293   0.0240 171.3728 0002399  37.4298 151.1842  1.00268939 32535
SKYNET 5B               
1 32294U 07056B   16273.16533564  .00000115  00000-0  00000+0 0  9996
2 32294   0.0697   5.9726 0003829 182.1983 264.7969  1.00271223 32621
ASTRA 4A (SIRIUS 4)     
1 32299U 07057A   16273.17822046  .00000006  00000-0  00000+0 0  9998
2 32299   0.0354 305.5105 0002516 245.2148 246.6162  1.00273091 32384
HORIZONS-2              
1 32388U 07063B   16273.02741084 -.00000209  00000-0  00000+0 0  9996
2 32388   0.0174 176.7249 0002402  15.4012 270.8022  1.00269184 32305
THURAYA-3               
1 32404U 08001A   16272.78879807 -.00000330  00000-0  00000+0 0  9990
2 32404   4.1731 351.0701 0004007 200.2638 199.1165  1.00273641 31954
EXPRESS-AM33            
1 32478U 08003A   16273.02027478 -.00000308  00000-0  00000+0 0  9995
2 32478   0.0270 308.2894 0001337 347.6999 176.0229  1.00272199 32047
THOR 5                  
1 32487U 08006A   16273.17809088 -.00000036  00000-0  00000+0 0  9997
2 32487   0.0291 239.3672 0001721 327.3433 225.0188  1.00271630 31602
KIZUNA (WINDS)          
1 32500U 08007A   16272.82065525 -.00000286  00000-0  00000-0 0  9993
2 32500   0.2809  91.9906 0002068  87.1935 267.2807  1.00270730 31314
AMC-14                  
1 32708U 08011A   16272.22005503  .00000087  00000-0  00000-0 0  9990
2 32708  18.6315  66.8687 0033999   8.5799  29.2098  1.00272699 32571
DIRECTV 11              
1 32729U 08013A   16273.35283904 -.00000153  00000-0  00000+0 0  9997
2 32729   0.0022 251.6464 0000266 212.8616 291.8783  1.00272355 31363
ICO G1                  
1 32763U 08016A   16273.14285521 -.00000199  00000-0  00000+0 0  9992
2 32763   3.9467 351.8583 0002762 208.2142 126.8530  1.00272176 30881
VINASAT-1               
1 32767U 08018A   16272.61178424 -.00000357  00000-0  00000-0 0  9999
2 32767   0.0238 276.3502 0001745 301.6481 141.9985  1.00271050 31046
STAR ONE C2             
1 32768U 08018B   16272.17391243 -.00000295  00000-0  00000+0 0  9997
2 32768   0.0258 174.1694 0002968  31.1130 154.7115  1.00273494 30961
TIANLIAN 1-01           
1 32779U 08019A   16272.12726898 -.00000162  00000-0  10000-3 0  9991
2 32779   2.2686  77.2871 0033922 217.7408 197.9211  1.00269075 30883
AMOS-3                  
1 32794U 08022A   16272.28098334 -.00000063  00000-0  00000+0 0  9991
2 32794   0.0368 242.9953 0001846 266.8340 314.8285  1.00272720 30865
GALAXY 18 (G-18)        
1 32951U 08024A   16272.32062263 -.00000004  00000-0  00000+0 0  9990
2 32951   0.0244 178.3647 0003077  20.8694 160.7543  1.00269438 30501
CHINASAT 9 (ZX 9)       
1 33051U 08028A   16271.30098066  .00000000  00000-0  10000-3 0  9993
2 33051   0.0168 250.9225 0004111 296.9314  19.2452  1.00267384 30417
SKYNET 5C               
1 33055U 08030A   16273.36042777 -.00000166  00000-0  00000+0 0  9995
2 33055   0.0638 352.7036 0004046 199.8674 287.9066  1.00271653 30320
TURKSAT 3A              
1 33056U 08030B   16273.04019118  .00000118  00000-0  00000+0 0  9990
2 33056   0.0443 151.8438 0004967  35.0195 237.8645  1.00275485 30504
INTELSAT 25 (IS-25)     
1 33153U 08034A   16272.06731523 -.00000254  00000-0  00000+0 0  9996
2 33153   0.0227 250.3356 0002464 283.2633 186.4124  1.00271355 30053
BADR-6                  
1 33154U 08034B   16273.09632836  .00000118  00000-0  00000+0 0  9996
2 33154   0.0564  17.3545 0001676 147.2600 264.3883  1.00275409 30182
ECHOSTAR 11             
1 33207U 08035A   16272.28471923 -.00000086  00000-0  00000+0 0  9999
2 33207   0.0100 134.0211 0002881  77.8293 148.1408  1.00272328 30076
SUPERBIRD-C2            
1 33274U 08038A   16272.82400975 -.00000279  00000-0  00000-0 0  9990
2 33274   0.0392 275.7550 0000879 314.0221 218.8337  1.00270598 70149
AMC-21                  
1 33275U 08038B   16272.56397340  .00000008  00000-0  00000-0 0  9992
2 33275   0.0072 222.6756 0002550 335.0885 248.1198  1.00272188 29918
INMARSAT 4-F3           
1 33278U 08039A   16273.12973971 -.00000166  00000-0  00000+0 0  9994
2 33278   3.0198 358.7746 0002936 197.2627 121.0213  1.00271570 29688
NIMIQ 4                 
1 33373U 08044A   16273.26067623 -.00000247  00000-0  00000+0 0  9999
2 33373   0.0225 246.8499 0002358 303.6159 189.8443  1.00271196 29260
GALAXY 19 (G-19)        
1 33376U 08045A   16272.24871877 -.00000169  00000-0  00000+0 0  9997
2 33376   0.0131 228.4867 0002931 329.2341 162.2774  1.00272582 29259
VENESAT-1               
1 33414U 08055A   16273.17340904 -.00000265  00000-0  00000+0 0  9993
2 33414   0.0317  92.5103 0001708 115.4282 144.8437  1.00270463 28977
ASTRA 1M                
1 33436U 08057A   16273.10499554  .00000092  00000-0  00000+0 0  9995
2 33436   0.0138 125.2055 0004230  37.9615 262.1315  1.00269446 28904
CIEL-2                  
1 33453U 08063A   16273.14979796  .00000031  00000-0  00000+0 0  9999
2 33453   0.0153 193.3585 0002700   1.6507  98.4010  1.00271884 28587
EUTELSAT HOT BIRD 13C   
1 33459U 08065A   16271.09223494  .00000000  00000-0  10000-3 0  9997
2 33459   0.0440  26.6334 0004034 128.8342 257.1027  1.00272629 26233
EUTELSAT 48D            
1 33460U 08065B   16272.58865008  .00000095  00000-0  00000-0 0  9997
2 33460   0.0208  12.5344 0002616 201.1176  54.1847  1.00274349 28447
FENGYUN 2E              
1 33463U 08066A   16273.53373705 -.00000224  00000-0  00000+0 0  9999
2 33463   1.6918  64.2732 0004721 208.0694  14.9275  1.00276105 28519
EXPRESS-AM44            
1 33595U 09007A   16273.20085444 -.00000116  00000-0  00000+0 0  9995
2 33595   0.0360 312.9328 0001613 338.7323 138.0341  1.00272838 27981
NSS-9                   
1 33749U 09008A   16272.75261821  .00000043  00000-0  00000+0 0  9999
2 33749   0.0026 150.5191 0001509  39.3690 272.0590  1.00271607 27988
EUTELSAT 33E            
1 33750U 09008B   16272.98203127  .00000128  00000-0  00000+0 0  9995
2 33750   0.0439 344.5983 0005496 219.1884 190.9997  1.00273446 28022
TELSTAR 11N             
1 34111U 09009A   16272.36957154 -.00000280  00000-0  00000+0 0  9996
2 34111   0.0255 194.0248 0002176 354.7438 274.2916  1.00270991 27832
EUTELSAT 10A            
1 34710U 09016A   16273.17833480  .00000041  00000-0  00000+0 0  9998
2 34710   0.0670   8.2330 0005000 184.4310 249.9013  1.00272227 27394
SES-7 (PROTOSTAR 2)     
1 34941U 09027A   16271.59483853 -.00000376  00000-0  00000-0 0  9998
2 34941   0.0457  71.2698 0002242 176.0971  81.8418  1.00270820 27046
MEASAT-3A               
1 35362U 09032A   16272.72380404 -.00000270  00000-0  00000+0 0  9998
2 35362   0.0367 218.3267 0003024 354.2429 147.4211  1.00270695 26664
GOES 14                 
1 35491U 09033A   16273.26720521 -.00000118  00000-0  00000+0 0  9991
2 35491   0.3078 270.7468 0008391 299.8933 149.3212  1.00272118 26585
SIRIUS FM-5             
1 35493U 09034A   16273.14285521 -.00000227  00000-0  00000+0 0  9998
2 35493   0.0183 158.2670 0000264 220.4268 314.9363  1.00266408 26399
TERRESTAR-1             
1 35496U 09035A   16271.23299853 -.00000087  00000-0  00000+0 0  9997
2 35496   3.1117 339.4536 0003031 218.3909 141.4839  1.00271716 26568
ASIASAT 5               
1 35696U 09042A   16271.26216900  .00000000  00000-0  10000-3 0  9991
2 35696   0.0101 271.8476 0000832 226.4576  63.0221  1.00265295 26072
JCSAT-RA (JCSAT-12)     
1 35755U 09044A   16272.62294659 -.00000374  00000-0  00000+0 0  9997
2 35755   0.0237  64.5697 0001019 110.8858 184.5455  1.00269696 26085
